IRIDIUM 120             
1 42805U 17039C   26187.83897044  .00000051  00000+0  11007-4 0  9994
2 42805  86.3976 313.7442 0002263  99.0771 261.0681 14.34217593473995
IRIDIUM 135             
1 43070U 17083A   26187.40767522  .00000061  00000+0  14754-4 0  9991
2 43070  86.3982 313.9802 0002184  93.2291 266.9155 14.34218109446909
IRIDIUM 116             
1 43072U 17083C   26187.40133213  .00000343  00000+0  11538-3 0  9996
2 43072  86.3980 313.9683 0002322 100.6789 259.4668 14.34218745446929
IRIDIUM 151             
1 43074U 17083E   26187.41401688  .00000108  00000+0  31413-4 0  9997
2 43074  86.3984 314.0214 0002217  94.1646 265.9803 14.34218609446897
IRIDIUM 149             
1 43250U 18030B   26187.70235287  .00000108  00000+0  31397-4 0  9999
2 43250  86.3961 282.2075 0002265  93.5688 266.5767 14.34218704432955
IRIDIUM 146             
1 43254U 18030F   26187.77846375  .00000094  00000+0  26666-4 0  9993
2 43254  86.3962 282.2262 0002329  98.0232 262.1229 14.34218735432942
